CCSDS_OEM_VERS = 2.0  
CREATION_DATE  = 2026-03-24T10:38:22
ORIGINATOR     = ESOC/OPS-GFA                            
 
 



META_START
OBJECT_NAME          = LISA                                    
OBJECT_ID            = -1000                                   
CENTER_NAME          = SUN                     
REF_FRAME            = EME2000 
TIME_SYSTEM          = TCB
START_TIME           = 2036-12-23T00:00:30.346418            
STOP_TIME            = 2047-09-09T07:52:29.154762            
INTERPOLATION        = HERMITE                                 
INTERPOLATION_DEGREE = 7                                       
META_STOP

2042-12-02T18:21:41.612595     9.43651525295721591e+07    1.06432057072949365e+08    4.52136280182864740e+07   -2.30728349074913623e+01    1.73316832357197832e+01    7.71189612963904025e+00   -3.76670994085680721e-06   -4.24810776945020706e-06   -1.80464373725699509e-06
2042-12-03T14:37:31.131810     9.26720380887090862e+07    1.07685047595082954e+08    4.57713857126353234e+07   -2.33451329064968292e+01    1.70199807645694676e+01    7.57944434453791338e+00   -3.69854188725260708e-06   -4.29744018084016879e-06   -1.82661738149643210e-06
2042-12-04T10:53:20.651026     9.09592417332000732e+07    1.08915169196812958e+08    4.63194230236818641e+07   -2.36124298427106361e+01    1.67047136535905274e+01    7.44540411233868049e+00   -3.62960229068085100e-06   -4.34583503738714901e-06   -1.84819220084344663e-06
2042-12-05T07:09:10.170241     8.92271303290851414e+07    1.10122164342570603e+08    4.68576251399760768e+07   -2.38746700001250964e+01    1.63859506617814858e+01    7.30980469020237145e+00   -3.55990674111967326e-06   -4.39328237578749506e-06   -1.86936374089745239e-06
2042-12-06T03:24:59.689458     8.74760747525533885e+07    1.11305780506088749e+08    4.73858793819854334e+07   -2.41317988056344888e+01    1.60637612665664840e+01    7.17267565665355811e+00   -3.48947098057912699e-06   -4.43977246132608162e-06   -1.89012764485344163e-06
2042-12-06T23:40:49.208673     8.57064498082312793e+07    1.12465770228741586e+08    4.79040752280903682e+07   -2.43837628396329578e+01    1.57382156475048518e+01    7.03404690462292059e+00   -3.41831088901250259e-06   -4.48529577654167926e-06   -1.91047964872550324e-06
2042-12-07T19:56:38.727889     8.39186341537610590e+07    1.13601891195722580e+08    4.84121043482437730e+07   -2.46305098454614146e+01    1.54093846709948004e+01    6.89394863490950449e+00   -3.34644246687890335e-06   -4.52984300533624102e-06   -1.93041557462858414e-06
2042-12-08T16:12:28.247105     8.21130102327594459e+07    1.14713906335581750e+08    4.89098606476658061e+07   -2.48719887374586079e+01    1.50773398763038156e+01    6.75241135020449157e+00   -3.27388181432844550e-06   -4.57340501250974029e-06   -1.94993132211082163e-06
2042-12-09T12:28:17.766320     8.02899642182470709e+07    1.15801583948644280e+08    4.93972403229446709e+07   -2.51081496073712245e+01    1.47421534632584503e+01    6.60946584981817953e+00   -3.20064510695957805e-06   -4.61597281866304110e-06   -1.96902285751195383e-06
2042-12-10T08:45:40.305547     7.84475288307385147e+07    1.16866037389750302e+08    4.98747431783806607e+07   -2.53392345899306370e+01    1.44034650148735217e+01    6.46495832086491706e+00   -3.12665441053279311e-06   -4.65759056053055491e-06   -1.98770999440750594e-06
2042-12-11T05:03:02.844774     7.65884123708339483e+07    1.17905642061640099e+08    5.03416413777290434e+07   -2.55648914605233202e+01    1.40617736713998696e+01    6.31910162434874767e+00   -3.05201910768590412e-06   -4.69819464984766964e-06   -2.00596421415280595e-06
2042-12-12T01:20:25.384002     7.47130130258584768e+07    1.18920181369654983e+08    5.07978375468461812e+07   -2.57850737476471110e+01    1.37171537675245840e+01    6.17192751485538249e+00   -2.97675597535602880e-06   -4.73777703808081341e-06   -2.02378188066600753e-06
2042-12-12T21:37:47.923228     7.28217323268117160e+07    1.19909444105367199e+08    5.12432366127084866e+07   -2.59997362085086223e+01    1.33696802194925350e+01    6.02346800984726727e+00   -2.90088188157840774e-06   -4.77632985500955358e-06   -2.04115943429650606e-06
2042-12-13T17:55:10.462456     7.09149750644733012e+07    1.20873224544436917e+08    5.16777458465360478e+07   -2.62088348359282826e+01    1.30194285110526771e+01    5.87375538363794547e+00   -2.82441379193166780e-06   -4.81384543595225322e-06   -2.05809340354151889e-06
2042-12-14T14:12:33.001682     6.89931492019912601e+07    1.21811322516704395e+08    5.21012748949272707e+07   -2.64123268656351158e+01    1.26664746776104522e+01    5.72282216059427284e+00   -2.74736877383263705e-06   -4.85031634374127628e-06   -2.07458041450682418e-06
2042-12-15T10:29:55.540910     6.70566657845929116e+07    1.22723543454331040e+08    5.25137358015159741e+07   -2.66101707837967147e+01    1.23108952889666288e+01    5.57070110772988514e+00   -2.66976399868304895e-06   -4.88573538545470296e-06   -2.09061719811477833e-06
2042-12-16T06:47:18.080136     6.51059388470744863e+07    1.23609698423791811e+08    5.29150430216570944e+07   -2.68023263346273950e+01    1.19527674310258121e+01    5.41742522685458283e+00   -2.59161674186182166e-06   -4.92009562389408353e-06   -2.10620059505507534e-06
2042-12-17T03:04:40.619364     6.31413853197252005e+07    1.24469604147520840e+08    5.33051134326471388e+07   -2.69887545279174610e+01    1.15921686868578906e+01    5.26302774644429761e+00   -2.51294438057408141e-06   -4.95339038382679419e-06   -2.12132755848605899e-06
2042-12-17T23:22:03.158591     6.11634249333418831e+07    1.25303083021012723e+08    5.36838663419855684e+07   -2.71694176463264867e+01    1.12291771174956843e+01    5.10754211339628750e+00   -2.43376438953881480e-06   -4.98561325296268383e-06   -2.13599515447390261e-06
2042-12-18T19:39:25.697818     5.91724801239901111e+07    1.26109963131181419e+08    5.40512234961832911e+07   -2.73442792522835987e+01    1.08638712428520510e+01    4.95100198483423970e+00   -2.35409433453982387e-06   -5.01675807770760820e-06   -2.15020056018760985e-06
2042-12-19T15:56:48.237045     5.71689759381676167e+07    1.26890078281778991e+08    5.44071090926243886e+07   -2.75133041943376639e+01    1.04963300231397021e+01    4.79344122012792795e+00   -2.27395186382132098e-06   -5.04681895365742138e-06   -2.16394105983441143e-06
2042-12-20T12:14:10.776272     5.51533399390261695e+07    1.27643268031676337e+08    5.47514497969872430e+07   -2.76764586128003280e+01    1.01266328411770061e+01    4.63489387329210523e+00   -2.19335469731365961e-06   -5.07579021081927867e-06   -2.17721403832986765e-06
2042-12-21T08:31:33.315499     5.31260021143075377e+07    1.28369377751808211e+08    5.50841747687312290e+07   -2.78337099445248661e+01    9.75485948596298691e+00    4.47539418592925653e+00   -2.11232061375507461e-06   -5.10366639365483048e-06   -2.19001697274310914e-06
2042-12-22T04:48:55.854726     5.10873947866502777e+07    1.29068258706584364e+08    5.54052156971551627e+07   -2.79850269266637426e+01    9.38109013790489144e+00    4.31497658088091463e+00   -2.03086743562149183e-06   -5.13044223581212337e-06   -2.20234742146035609e-06
2042-12-23T01:06:18.393954     4.90379525269216970e+07    1.29739768165569276e+08    5.57145068505336568e+07   -2.81303795992478669e+01    9.00540535608143955e+00    4.15367565675217776e+00   -1.94901301188856019e-06   -5.15611262958539933e-06   -2.21420301108343521e-06
2042-12-23T21:27:54.271127     4.69709501983528957e+07    1.30385954833522394e+08    5.60129961350101978e+07   -2.82702122053050680e+01    8.62657357278073889e+00    3.99096234421091811e+00   -1.86648964607361814e-06   -5.18075656949030155e-06   -2.22562036736521710e-06
2042-12-24T17:49:30.148299     4.48939207216452956e+07    1.31004309516872510e+08    5.62995289745087549e+07   -2.84039826054109952e+01    8.24597659152542128e+00    3.82742985427476068e+00   -1.78359867780359702e-06   -5.20427829445068814e-06   -2.23655529925187039e-06
2042-12-25T14:11:06.025473     4.28073093937299028e+07    1.31594705884802178e+08    5.65740466386012211e+07   -2.85316645264684610e+01    7.86369681798480435e+00    3.66311361855821227e+00   -1.70035841391097385e-06   -5.22667368684123407e-06   -2.24700585705428021e-06
2042-12-26T10:32:41.902645     4.07115633986145556e+07    1.32157023592122063e+08    5.68364929706483409e+07   -2.86532330387669596e+01    7.47981695297019300e+00    3.49804920873061675e+00   -1.61678720409049942e-06   -5.24793881633428787e-06   -2.25697017123619138e-06
2042-12-27T06:54:17.779819     3.86071317006676421e+07    1.32691148356982782e+08    5.70868144224354327e+07   -2.87686645591021772e+01    7.09441997758810139e+00    3.33227233015078017e+00   -1.53290344010862198e-06   -5.26806996936356118e-06   -2.26644646533867375e-06
2042-12-28T03:15:53.656991     3.64944649414746314e+07    1.33196972010383561e+08    5.73249600765599310e+07   -2.88779368538049930e+01    6.70758913644975863e+00    3.16581881464801107e+00   -1.44872555417144746e-06   -5.28706367279274417e-06   -2.27543306638731486e-06
2042-12-28T23:37:29.534165     3.43740153394286260e+07    1.33674392523365110e+08    5.75508816591284648e+07   -2.89810290416200580e+01    6.31940791935798973e+00    2.99872461263253198e+00   -1.36427201645153837e-06   -5.30491671179481503e-06   -2.28392841278477984e-06
2042-12-29T19:59:05.411338     3.22462365912344493e+07    1.34123314017767057e+08    5.77645335453175604e+07   -2.90779215963721605e+01    5.92996004189601500e+00    2.83102578471965938e+00   -1.27956133177110980e-06   -5.32162614193427551e-06   -2.29193105968520406e-06
2042-12-30T16:20:41.288511     3.01115837745062932e+07    1.34543646766429216e+08    5.79658727603522986e+07   -2.91685963493586939e+01    5.53932942534272676e+00    2.66275849305217260e+00   -1.19461203544534631e-06   -5.33718929546533802e-06   -2.29943968185623110e-06
